STARLINK-6031           
1 56810U 23078AV  24351.14386298  .00000239  00000+0  27815-4 0  9996
2 56810  69.9994  35.3495 0002921 269.6844  90.3981 14.98334049 85750
STARLINK-6063           
1 56811U 23078AW  24352.15731550 -.00004340  00000+0 -35599-3 0  9990
2 56811  69.9999 352.7102 0003288 267.1703  92.9079 14.98351183 86891
STARLINK-6065           
1 56812U 23078AX  24352.11181828  .00001807  00000+0  15917-3 0  9999
2 56812  70.0007  12.8447 0002529 264.7990  95.2881 14.98346003 86396
STARLINK-6056           
1 56813U 23078AY  24351.85751915  .00000665  00000+0  63558-4 0  9996
2 56813  69.9996  33.4251 0002894 269.6993  90.3835 14.98329171 85600
STARLINK-6059           
1 56814U 23078AZ  24351.86570292  .00000463  00000+0  46606-4 0  9996
2 56814  70.0012  33.4543 0002774 269.7002  90.3839 14.98331358 85600
STARLINK-6057           
1 56815U 23078BA  24351.42343570  .00000000  00000+0  78365-5 0  9991
2 56815  69.9998  34.8287 0003066 270.9418  89.1389 14.98329273 85790
STARLINK-6067           
1 56816U 23078BB  24351.76532799  .00000204  00000+0  24883-4 0  9993
2 56816  69.9993  13.6352 0002908 270.3126  89.7700 14.98331098 86082
STARLINK-5982           
1 56817U 23078BC  24352.14108982  .00000781  00000+0  73240-4 0  9991
2 56817  70.0007  32.8105 0002949 270.8873  89.1948 14.98330135 85909
STARLINK-6028           
1 56818U 23078BD  24351.85735661 -.00000142  00000+0 -41454-5 0  9995
2 56818  70.0001  33.4246 0002991 270.8290  89.2526 14.98328122 86296
STARLINK-30119          
1 56823U 23079A   24351.43553063  .00002393  00000+0  19222-3 0  9994
2 56823  43.0046  23.2073 0001487 279.3774  80.6901 15.02528395 85129
STARLINK-30120          
1 56824U 23079B   24352.09697930  .00000612  00000+0  60344-4 0  9994
2 56824  43.0024  19.5723 0000932 268.4267  91.6469 15.02533470 85239
STARLINK-30084          
1 56825U 23079C   24351.36240415  .00000849  00000+0  77916-4 0  9991
2 56825  43.0021  23.5216 0001096 251.5520 108.5204 15.02535500 85114
STARLINK-30114          
1 56826U 23079D   24351.77788346  .00001446  00000+0  12208-3 0  9993
2 56826  43.0024  21.2878 0001101 255.6280 104.4440 15.02530247 85820
STARLINK-30151          
1 56827U 23079E   24351.82107814  .00000383  00000+0  43394-4 0  9995
2 56827  43.0023  20.9349 0001157 270.0228  90.0482 15.02533365 85519
STARLINK-30152          
1 56828U 23079F   24352.15014047 -.00000245  00000+0 -30516-5 0  9990
2 56828  43.0036  19.1135 0001062 267.2054  92.8667 15.02533631 85237
STARLINK-30128          
1 56832U 23079K   24351.72299061  .00002021  00000+0  16461-3 0  9991
2 56832  43.0035 355.5015 0000866 274.4177  85.6566 15.02534732 79393
STARLINK-30131          
1 56833U 23079L   24351.71190442  .00001447  00000+0  12219-3 0  9992
2 56833  43.0053 355.5761 0001160 278.6025  81.4686 15.02540858 85792
STARLINK-30069          
1 56834U 23079M   24351.81441831 -.00000990  00000+0 -58256-4 0  9991
2 56834  43.0052  20.8878 0001298 263.3193  96.7501 15.02531052 85513
STARLINK-30144          
1 56835U 23079N   24352.14349452 -.00001765  00000+0 -11569-3 0  9991
2 56835  43.0055  19.0636 0001797 269.9911  90.0726 15.02516882 85232
STARLINK-30142          
1 56836U 23079P   24352.14014885  .00000695  00000+0  66513-4 0  9990
2 56836  43.0022  19.0375 0001151 266.4995  93.5716 15.02540918 85239
STARLINK-30133          
1 56837U 23079Q   24351.80443093 -.00000683  00000+0 -35518-4 0  9990
2 56837  43.0039  20.8046 0001271 266.1297  93.9400 15.02533807 85512
STARLINK-30123          
1 56838U 23079R   24351.81956145  .00024134  00000+0  17100-2 0  9999
2 56838  43.0025  20.8091 0000583   2.7863 357.2983 15.04373153 85516
STARLINK-30076          
1 56839U 23079S   24352.06700912 -.00001135  00000+0 -68980-4 0  9999
2 56839  43.0022  19.3339 0000656 281.6259  78.4509 15.02534551 85223
STARLINK-30073          
1 56840U 23079T   24352.05091988 -.00000329  00000+0 -27416-5 0  9990
2 56840  42.9991 356.7219 0001417 284.1682  75.9011 15.25894642 85480
STARLINK-30078          
1 56841U 23079U   24351.46538334  .00000708  00000+0  67467-4 0  9994
2 56841  43.0065  22.5752 0001117 263.3717  96.6998 15.02538203 85139
STARLINK-30135          
1 56842U 23079V   24351.77123710 -.00000026  00000+0  13125-4 0  9993
2 56842  43.0029  21.3311 0000988 277.4361  82.6369 15.02537015 85502
STARLINK-30137          
1 56843U 23079W   24352.15678556  .00002706  00000+0  21539-3 0  9993
2 56843  43.0045  19.0638 0000856 269.6279  90.4465 15.02522637 85230
STARLINK-30136          
1 56844U 23079X   24351.78455515 -.00000154  00000+0  37044-5 0  9996
2 56844  43.0044  21.4165 0001173 270.7254  89.3454 15.02532777 85502
STARLINK-6206           
1 56876U 23083A   24351.74747138 -.00000279  00000+0 -55748-5 0  9997
2 56876  43.0048 356.1666 0001254 266.7357  93.3342 15.02536630 84281
STARLINK-6209           
1 56877U 23083B   24352.00561405  .00002411  00000+0  19353-3 0  9997
2 56877  43.0044 354.6664 0001005 258.0642 102.0088 15.02524106 83520
STARLINK-6182           
1 56878U 23083C   24351.74636996  .00000243  00000+0  33054-4 0  9992
2 56878  43.0034 356.1601 0001144 258.6841 101.3873 15.02535066 84284
STARLINK-5707           
1 56879U 23083D   24352.07542417 -.00000378  00000+0 -12907-4 0  9999
2 56879  43.0066 354.3288 0001293 268.2274  91.8420 15.02534003 83531
STARLINK-6177           
1 56880U 23083E   24352.06543492  .00000634  00000+0  61972-4 0  9993
2 56880  43.0037 354.2530 0000880 262.2184  97.8558 15.02533964 83538
STARLINK-5853           
1 56881U 23083F   24351.74081326  .00000321  00000+0  38843-4 0  9995
2 56881  43.0036 356.1206 0001187 277.1549  82.9158 15.02535625 84280
STARLINK-6175           
1 56882U 23083G   24351.32863043  .00000313  00000+0  38244-4 0  9990
2 56882  43.0074 358.1847 0001239 269.0392  91.0309 15.02533166 83422
STARLINK-6171           
1 56883U 23083H   24352.06990667 -.00001055  00000+0 -63076-4 0  9993
2 56883  43.0082 354.2884 0001849 279.0169  81.0465 15.02521703 83538
STARLINK-5515           
1 56884U 23083J   24352.05322384  .00000293  00000+0  36798-4 0  9990
2 56884  43.0028 354.1555 0001271 262.3843  97.6855 15.02531543 83535
STARLINK-5095           
1 56885U 23083K   24352.06654597  .00000852  00000+0  78152-4 0  9997
2 56885  43.0059 354.2618 0001121 279.6487  80.4229 15.02528627 83534
STARLINK-5496           
1 56886U 23083L   24351.71972229  .00000009  00000+0  15716-4 0  9995
2 56886  43.0054 355.9530 0001316 265.8051  94.2641 15.02537300 84283
STARLINK-6180           
1 56887U 23083M   24351.72416414 -.00000170  00000+0  24933-5 0  9998
2 56887  43.0071 355.9915 0001011 263.5901  96.4826 15.02535280 84285
STARLINK-6181           
1 56888U 23083N   24351.70640559  .00001101  00000+0  96551-4 0  9994
2 56888  43.0074 355.8584 0001005 270.4351  89.6376 15.02533560 84282
STARLINK-6169           
1 56889U 23083P   24351.71639153  .00001431  00000+0  12098-3 0  9993
2 56889  43.0073 355.9311 0001185 268.9759  91.0947 15.02536080 84285
STARLINK-5528           
1 56890U 23083Q   24351.90695100 -.00000013  00000+0  14141-4 0  9998
2 56890  43.0047 354.7808 0001114 274.8414  85.2301 15.02536838 84316
STARLINK-6213           
1 56891U 23083R   24351.71306547 -.00000129  00000+0  55092-5 0  9991
2 56891  43.0064 355.9071 0001444 273.8096  86.2581 15.02533056 84288
STARLINK-6219           
1 56892U 23083S   24352.03213534  .00000770  00000+0  72101-4 0  9991
2 56892  43.0076 353.9983 0001889 267.2454  92.8173 15.02530863 83530
STARLINK-6216           
1 56893U 23083T   24351.70973322  .00000392  00000+0  44095-4 0  9994
2 56893  43.0058 355.8804 0001291 266.0365  94.0330 15.02537141 84401
STARLINK-6144           
1 56894U 23083U   24352.03324575  .00000226  00000+0  31820-4 0  9990
2 56894  43.0053 354.0061 0001226 261.7860  98.2844 15.02535079 83530
STARLINK-6208           
1 56895U 23083V   24351.70307521  .00001209  00000+0  10456-3 0  9999
2 56895  43.0038 355.8302 0001365 264.2160  95.8526 15.02535344 84284
STARLINK-6202           
1 56896U 23083W   24352.09195662  .00000391  00000+0  44018-4 0  9997
2 56896  43.0040 353.5873 0001156 273.3058  86.7653 15.02531672 83549
STARLINK-6200           
1 56897U 23083X   24351.49697902  .00001001  00000+0  89185-4 0  9998
2 56897  43.0050 356.8653 0001016 272.0393  88.0333 15.02539280 83459
STARLINK-6205           
1 56898U 23083Y   24352.01879549  .00002150  00000+0  17409-3 0  9992
2 56898  43.0009 353.8955 0001844 300.4379  59.6281 15.02552703 83535
STARLINK-6203           
1 56899U 23083Z   24352.08862410 -.00000019  00000+0  13641-4 0  9997
2 56899  43.0034 353.5610 0000767 244.0293 116.0471 15.02536503 83540
STARLINK-6207           
1 56900U 23083AA  24351.69013317  .00001013  00000+0  90060-4 0  9994
2 56900  43.0047 343.5984 0001183 274.4520  85.6187 15.02536206 84392
STARLINK-6185           
1 56901U 23083AB  24352.08307443  .00000546  00000+0  55510-4 0  9996
2 56901  43.0046 353.5190 0001091 254.1481 105.9241 15.02534809 83541
STARLINK-6195           
1 56902U 23083AC  24351.68680437  .00000386  00000+0  43617-4 0  9996
2 56902  43.0043 343.5764 0000822 271.7226  88.3522 15.02533956 84536
STARLINK-6192           
1 56903U 23083AD  24351.08923445  .00000618  00000+0  60853-4 0  9999
2 56903  43.0078 358.9627 0001313 263.2790  96.7903 15.02533651 83392
STARLINK-6193           
1 56904U 23083AE  24351.26463148 -.00000893  00000+0 -51036-4 0  9999
2 56904  43.0059 345.5620 0001606 280.7191  79.3471 15.02529839 83560
STARLINK-6183           
1 56905U 23083AF  24352.02363402 -.00000062  00000+0  10517-4 0  9993
2 56905  43.0049 341.7985 0001259 272.7045  87.3653 15.02535448 83671
STARLINK-6098           
1 56906U 23083AG  24351.47848997 -.00000209  00000+0 -38717-6 0  9997
2 56906  43.0062 344.5862 0001576 260.1723  99.8942 15.02533431 83598
